SKYSAT-C13              
1 43802U 18099AW  26068.66503718  .00089861  00000+0  55860-3 0  9990
2 43802  96.9402 116.3001 0003986 199.1701 160.9417 15.76710150407164
STARLINK-36603          
1 67592U 26018D   26068.72538788  .00224474  00000+0  14675-2 0  9993
2 67592  97.2848 134.5407 0001111  98.1577 261.9814 15.75175646  7313
