[{"OBJECT_NAME":"SKYSAT-C13","OBJECT_ID":"2018-099AW","EPOCH":"2026-03-09T15:57:39.212352","MEAN_MOTION":15.7671015,"ECCENTRICITY":0.00039856,"INCLINATION":96.9402,"RA_OF_ASC_NODE":116.3001,"ARG_OF_PERICENTER":199.1701,"MEAN_ANOMALY":160.9417,"EPHEMERIS_TYPE":0,"CLASSIFICATION_TYPE":"U","NORAD_CAT_ID":43802,"ELEMENT_SET_NO":999,"REV_AT_EPOCH":40716,"BSTAR":0.00055859913,"MEAN_MOTION_DOT":0.00089861,"MEAN_MOTION_DDOT":0},{"OBJECT_NAME":"STARLINK-36603","OBJECT_ID":"2026-018D","EPOCH":"2026-03-09T17:24:33.512832","MEAN_MOTION":15.75175646,"ECCENTRICITY":0.00011106,"INCLINATION":97.2848,"RA_OF_ASC_NODE":134.5407,"ARG_OF_PERICENTER":98.1577,"MEAN_ANOMALY":261.9814,"EPHEMERIS_TYPE":0,"CLASSIFICATION_TYPE":"U","NORAD_CAT_ID":67592,"ELEMENT_SET_NO":999,"REV_AT_EPOCH":731,"BSTAR":0.0014675317,"MEAN_MOTION_DOT":0.00224474,"MEAN_MOTION_DDOT":0}]
